[{"OBJECT_NAME":"SITRO-AIS 9 (SHCHUKIN)","OBJECT_ID":"2023-091AM","EPOCH":"2026-03-09T22:43:02.581824","MEAN_MOTION":15.34387966,"ECCENTRICITY":0.00083665,"INCLINATION":97.518,"RA_OF_ASC_NODE":137.1581,"ARG_OF_PERICENTER":74.1415,"MEAN_ANOMALY":286.0749,"EPHEMERIS_TYPE":0,"CLASSIFICATION_TYPE":"U","NORAD_CAT_ID":57201,"ELEMENT_SET_NO":999,"REV_AT_EPOCH":14951,"BSTAR":0.00072073044,"MEAN_MOTION_DOT":0.00023992,"MEAN_MOTION_DDOT":0},{"OBJECT_NAME":"STARLINK-35629","OBJECT_ID":"2025-237P","EPOCH":"2026-03-09T05:07:28.617024","MEAN_MOTION":15.30211335,"ECCENTRICITY":0.00013239,"INCLINATION":53.1591,"RA_OF_ASC_NODE":42.1174,"ARG_OF_PERICENTER":92.2864,"MEAN_ANOMALY":267.8288,"EPHEMERIS_TYPE":0,"CLASSIFICATION_TYPE":"U","NORAD_CAT_ID":66127,"ELEMENT_SET_NO":999,"REV_AT_EPOCH":2253,"BSTAR":0.0024749513,"MEAN_MOTION_DOT":0.00073697,"MEAN_MOTION_DDOT":0}]
